<?xml version="1.0" encoding="UTF-8"?>
<ndm xmlns:xsi="http://www.w3.org/2001/XMLSchema-instance" xsi:noNamespaceSchemaLocation="https://sanaregistry.org/r/ndmxml_unqualified/ndmxml-2.0.0-master-2.0.xsd">
<omm id="CCSDS_OMM_VERS" version="2.0">
<header><CREATION_DATE/><ORIGINATOR/></header><body><segment><metadata><OBJECT_NAME>ORBCOMM FM05</OBJECT_NAME><OBJECT_ID>1997-084F</OBJECT_ID><CENTER_NAME>EARTH</CENTER_NAME><REF_FRAME>TEME</REF_FRAME><TIME_SYSTEM>UTC</TIME_SYSTEM><MEAN_ELEMENT_THEORY>SGP4</MEAN_ELEMENT_THEORY></metadata><data><meanElements><EPOCH>2024-08-10T13:11:56.531040</EPOCH><MEAN_MOTION>14.43241759</MEAN_MOTION><ECCENTRICITY>.0002929</ECCENTRICITY><INCLINATION>45.0154</INCLINATION><RA_OF_ASC_NODE>56.8709</RA_OF_ASC_NODE><ARG_OF_PERICENTER>120.5784</ARG_OF_PERICENTER><MEAN_ANOMALY>239.5356</MEAN_ANOMALY></meanElements><tleParameters><EPHEMERIS_TYPE>0</EPHEMERIS_TYPE><CLASSIFICATION_TYPE>U</CLASSIFICATION_TYPE><NORAD_CAT_ID>25117</NORAD_CAT_ID><ELEMENT_SET_NO>999</ELEMENT_SET_NO><REV_AT_EPOCH>39568</REV_AT_EPOCH><BSTAR>.16035E-2</BSTAR><MEAN_MOTION_DOT>.5308E-4</MEAN_MOTION_DOT><MEAN_MOTION_DDOT>0</MEAN_MOTION_DDOT></tleParameters></data></segment></body></omm>
<omm id="CCSDS_OMM_VERS" version="2.0">
<header><CREATION_DATE/><ORIGINATOR/></header><body><segment><metadata><OBJECT_NAME>ORBCOMM FM06</OBJECT_NAME><OBJECT_ID>1997-084G</OBJECT_ID><CENTER_NAME>EARTH</CENTER_NAME><REF_FRAME>TEME</REF_FRAME><TIME_SYSTEM>UTC</TIME_SYSTEM><MEAN_ELEMENT_THEORY>SGP4</MEAN_ELEMENT_THEORY></metadata><data><meanElements><EPOCH>2024-08-10T13:50:09.102336</EPOCH><MEAN_MOTION>14.43347376</MEAN_MOTION><ECCENTRICITY>.0002392</ECCENTRICITY><INCLINATION>45.0148</INCLINATION><RA_OF_ASC_NODE>56.8532</RA_OF_ASC_NODE><ARG_OF_PERICENTER>138.0653</ARG_OF_PERICENTER><MEAN_ANOMALY>238.4239</MEAN_ANOMALY></meanElements><tleParameters><EPHEMERIS_TYPE>0</EPHEMERIS_TYPE><CLASSIFICATION_TYPE>U</CLASSIFICATION_TYPE><NORAD_CAT_ID>25118</NORAD_CAT_ID><ELEMENT_SET_NO>999</ELEMENT_SET_NO><REV_AT_EPOCH>39660</REV_AT_EPOCH><BSTAR>.15602E-2</BSTAR><MEAN_MOTION_DOT>.5172E-4</MEAN_MOTION_DOT><MEAN_MOTION_DDOT>0</MEAN_MOTION_DDOT></tleParameters></data></segment></body></omm>
<omm id="CCSDS_OMM_VERS" version="2.0">
<header><CREATION_DATE/><ORIGINATOR/></header><body><segment><metadata><OBJECT_NAME>ORBCOMM FM07</OBJECT_NAME><OBJECT_ID>1997-084H</OBJECT_ID><CENTER_NAME>EARTH</CENTER_NAME><REF_FRAME>TEME</REF_FRAME><TIME_SYSTEM>UTC</TIME_SYSTEM><MEAN_ELEMENT_THEORY>SGP4</MEAN_ELEMENT_THEORY></metadata><data><meanElements><EPOCH>2024-08-10T13:41:41.263008</EPOCH><MEAN_MOTION>14.43244228</MEAN_MOTION><ECCENTRICITY>.0003445</ECCENTRICITY><INCLINATION>45.0144</INCLINATION><RA_OF_ASC_NODE>57.4808</RA_OF_ASC_NODE><ARG_OF_PERICENTER>109.1314</ARG_OF_PERICENTER><MEAN_ANOMALY>250.9910</MEAN_ANOMALY></meanElements><tleParameters><EPHEMERIS_TYPE>0</EPHEMERIS_TYPE><CLASSIFICATION_TYPE>U</CLASSIFICATION_TYPE><NORAD_CAT_ID>25119</NORAD_CAT_ID><ELEMENT_SET_NO>999</ELEMENT_SET_NO><REV_AT_EPOCH>39659</REV_AT_EPOCH><BSTAR>.16364E-2</BSTAR><MEAN_MOTION_DOT>.542E-4</MEAN_MOTION_DOT><MEAN_MOTION_DDOT>0</MEAN_MOTION_DDOT></tleParameters></data></segment></body></omm>
<omm id="CCSDS_OMM_VERS" version="2.0">
<header><CREATION_DATE/><ORIGINATOR/></header><body><segment><metadata><OBJECT_NAME>ORBCOMM FM03</OBJECT_NAME><OBJECT_ID>1998-007B</OBJECT_ID><CENTER_NAME>EARTH</CENTER_NAME><REF_FRAME>TEME</REF_FRAME><TIME_SYSTEM>UTC</TIME_SYSTEM><MEAN_ELEMENT_THEORY>SGP4</MEAN_ELEMENT_THEORY></metadata><data><meanElements><EPOCH>2024-08-10T13:35:53.055456</EPOCH><MEAN_MOTION>14.32586052</MEAN_MOTION><ECCENTRICITY>.0045499</ECCENTRICITY><INCLINATION>107.9720</INCLINATION><RA_OF_ASC_NODE>218.2378</RA_OF_ASC_NODE><ARG_OF_PERICENTER>70.5443</ARG_OF_PERICENTER><MEAN_ANOMALY>290.0604</MEAN_ANOMALY></meanElements><tleParameters><EPHEMERIS_TYPE>0</EPHEMERIS_TYPE><CLASSIFICATION_TYPE>U</CLASSIFICATION_TYPE><NORAD_CAT_ID>25158</NORAD_CAT_ID><ELEMENT_SET_NO>999</ELEMENT_SET_NO><REV_AT_EPOCH>37952</REV_AT_EPOCH><BSTAR>.15993E-2</BSTAR><MEAN_MOTION_DOT>.4271E-4</MEAN_MOTION_DOT><MEAN_MOTION_DDOT>0</MEAN_MOTION_DDOT></tleParameters></data></segment></body></omm>
<omm id="CCSDS_OMM_VERS" version="2.0">
<header><CREATION_DATE/><ORIGINATOR/></header><body><segment><metadata><OBJECT_NAME>ORBCOMM FM04</OBJECT_NAME><OBJECT_ID>1998-007C</OBJECT_ID><CENTER_NAME>EARTH</CENTER_NAME><REF_FRAME>TEME</REF_FRAME><TIME_SYSTEM>UTC</TIME_SYSTEM><MEAN_ELEMENT_THEORY>SGP4</MEAN_ELEMENT_THEORY></metadata><data><meanElements><EPOCH>2024-08-10T14:35:11.850720</EPOCH><MEAN_MOTION>14.32851323</MEAN_MOTION><ECCENTRICITY>.0041147</ECCENTRICITY><INCLINATION>107.9705</INCLINATION><RA_OF_ASC_NODE>221.3250</RA_OF_ASC_NODE><ARG_OF_PERICENTER>67.8953</ARG_OF_PERICENTER><MEAN_ANOMALY>292.6547</MEAN_ANOMALY></meanElements><tleParameters><EPHEMERIS_TYPE>0</EPHEMERIS_TYPE><CLASSIFICATION_TYPE>U</CLASSIFICATION_TYPE><NORAD_CAT_ID>25159</NORAD_CAT_ID><ELEMENT_SET_NO>999</ELEMENT_SET_NO><REV_AT_EPOCH>37970</REV_AT_EPOCH><BSTAR>.15703E-2</BSTAR><MEAN_MOTION_DOT>.4205E-4</MEAN_MOTION_DOT><MEAN_MOTION_DDOT>0</MEAN_MOTION_DDOT></tleParameters></data></segment></body></omm>
<omm id="CCSDS_OMM_VERS" version="2.0">
<header><CREATION_DATE/><ORIGINATOR/></header><body><segment><metadata><OBJECT_NAME>ORBCOMM FM17</OBJECT_NAME><OBJECT_ID>1998-046A</OBJECT_ID><CENTER_NAME>EARTH</CENTER_NAME><REF_FRAME>TEME</REF_FRAME><TIME_SYSTEM>UTC</TIME_SYSTEM><MEAN_ELEMENT_THEORY>SGP4</MEAN_ELEMENT_THEORY></metadata><data><meanElements><EPOCH>2024-08-10T13:36:15.511680</EPOCH><MEAN_MOTION>14.33476959</MEAN_MOTION><ECCENTRICITY>.0000726</ECCENTRICITY><INCLINATION>44.9939</INCLINATION><RA_OF_ASC_NODE>282.0057</RA_OF_ASC_NODE><ARG_OF_PERICENTER>202.7847</ARG_OF_PERICENTER><MEAN_ANOMALY>157.2967</MEAN_ANOMALY></meanElements><tleParameters><EPHEMERIS_TYPE>0</EPHEMERIS_TYPE><CLASSIFICATION_TYPE>U</CLASSIFICATION_TYPE><NORAD_CAT_ID>25413</NORAD_CAT_ID><ELEMENT_SET_NO>999</ELEMENT_SET_NO><REV_AT_EPOCH>35857</REV_AT_EPOCH><BSTAR>.97269E-3</BSTAR><MEAN_MOTION_DOT>.2572E-4</MEAN_MOTION_DOT><MEAN_MOTION_DDOT>0</MEAN_MOTION_DDOT></tleParameters></data></segment></body></omm>
<omm id="CCSDS_OMM_VERS" version="2.0">
<header><CREATION_DATE/><ORIGINATOR/></header><body><segment><metadata><OBJECT_NAME>ORBCOMM FM18</OBJECT_NAME><OBJECT_ID>1998-046B</OBJECT_ID><CENTER_NAME>EARTH</CENTER_NAME><REF_FRAME>TEME</REF_FRAME><TIME_SYSTEM>UTC</TIME_SYSTEM><MEAN_ELEMENT_THEORY>SGP4</MEAN_ELEMENT_THEORY></metadata><data><meanElements><EPOCH>2024-08-10T10:47:52.560960</EPOCH><MEAN_MOTION>14.36350104</MEAN_MOTION><ECCENTRICITY>.0002291</ECCENTRICITY><INCLINATION>44.9917</INCLINATION><RA_OF_ASC_NODE>207.6533</RA_OF_ASC_NODE><ARG_OF_PERICENTER>183.3493</ARG_OF_PERICENTER><MEAN_ANOMALY>176.7340</MEAN_ANOMALY></meanElements><tleParameters><EPHEMERIS_TYPE>0</EPHEMERIS_TYPE><CLASSIFICATION_TYPE>U</CLASSIFICATION_TYPE><NORAD_CAT_ID>25414</NORAD_CAT_ID><ELEMENT_SET_NO>999</ELEMENT_SET_NO><REV_AT_EPOCH>35953</REV_AT_EPOCH><BSTAR>.14948E-2</BSTAR><MEAN_MOTION_DOT>.4275E-4</MEAN_MOTION_DOT><MEAN_MOTION_DDOT>0</MEAN_MOTION_DDOT></tleParameters></data></segment></body></omm>
<omm id="CCSDS_OMM_VERS" version="2.0">
<header><CREATION_DATE/><ORIGINATOR/></header><body><segment><metadata><OBJECT_NAME>ORBCOMM FM19</OBJECT_NAME><OBJECT_ID>1998-046C</OBJECT_ID><CENTER_NAME>EARTH</CENTER_NAME><REF_FRAME>TEME</REF_FRAME><TIME_SYSTEM>UTC</TIME_SYSTEM><MEAN_ELEMENT_THEORY>SGP4</MEAN_ELEMENT_THEORY></metadata><data><meanElements><EPOCH>2024-08-10T10:52:15.621312</EPOCH><MEAN_MOTION>14.36186801</MEAN_MOTION><ECCENTRICITY>.0001032</ECCENTRICITY><INCLINATION>44.9926</INCLINATION><RA_OF_ASC_NODE>209.1751</RA_OF_ASC_NODE><ARG_OF_PERICENTER>193.5441</ARG_OF_PERICENTER><MEAN_ANOMALY>302.4883</MEAN_ANOMALY></meanElements><tleParameters><EPHEMERIS_TYPE>0</EPHEMERIS_TYPE><CLASSIFICATION_TYPE>U</CLASSIFICATION_TYPE><NORAD_CAT_ID>25415</NORAD_CAT_ID><ELEMENT_SET_NO>999</ELEMENT_SET_NO><REV_AT_EPOCH>35949</REV_AT_EPOCH><BSTAR>.16356E-2</BSTAR><MEAN_MOTION_DOT>.4675E-4</MEAN_MOTION_DOT><MEAN_MOTION_DDOT>0</MEAN_MOTION_DDOT></tleParameters></data></segment></body></omm>

</ndm>
