ORBCOMM FM05            
1 25117U 97084F   24223.54995985  .00005308  00000+0  16035-2 0  9993
2 25117  45.0154  56.8709 0002929 120.5784 239.5356 14.43241759395685
ORBCOMM FM06            
1 25118U 97084G   24223.57649424  .00005172  00000+0  15602-2 0  9999
2 25118  45.0148  56.8532 0002392 138.0653 238.4239 14.43347376396609
ORBCOMM FM07            
1 25119U 97084H   24223.57061647  .00005420  00000+0  16364-2 0  9997
2 25119  45.0144  57.4808 0003445 109.1314 250.9910 14.43244228396597
ORBCOMM FM03            
1 25158U 98007B   24223.56658629  .00004271  00000+0  15993-2 0  9997
2 25158 107.9720 218.2378 0045499  70.5443 290.0604 14.32586052379527
ORBCOMM FM04            
1 25159U 98007C   24223.60777605  .00004205  00000+0  15703-2 0  9995
2 25159 107.9705 221.3250 0041147  67.8953 292.6547 14.32851323379706
ORBCOMM FM17            
1 25413U 98046A   24223.56684620  .00002572  00000+0  97269-3 0  9993
2 25413  44.9939 282.0057 0000726 202.7847 157.2967 14.33476959358570
ORBCOMM FM18            
1 25414U 98046B   24223.44991390  .00004275  00000+0  14948-2 0  9990
2 25414  44.9917 207.6533 0002291 183.3493 176.7340 14.36350104359533
ORBCOMM FM19            
1 25415U 98046C   24223.45295858  .00004675  00000+0  16356-2 0  9997
2 25415  44.9926 209.1751 0001032 193.5441 302.4883 14.36186801359497
